$$SOE
2460714.500000000, A.D. 2025-Feb-08 00:00:00.0000, -2.686211571459022E+08, -5.379944962018076E+08, -3.569357006338208E+09,
2460721.500000000, A.D. 2025-Feb-15 00:00:00.0000, -2.719709078542430E+08, -5.385844922160746E+08, -3.573227246501158E+09,
2460728.500000000, A.D. 2025-Feb-22 00:00:00.0000, -2.753203893242889E+08, -5.391740274393249E+08, -3.577093837078215E+09,
2460735.500000000, A.D. 2025-Mar-01 00:00:00.0000, -2.786695968277913E+08, -5.397631027649589E+08, -3.580956786820409E+09,
2460742.500000000, A.D. 2025-Mar-08 00:00:00.0000, -2.820185245735035E+08, -5.403517191973666E+08, -3.584816104599765E+09,
2460749.500000000, A.D. 2025-Mar-15 00:00:00.0000, -2.853671657292821E+08, -5.409398760164530E+08, -3.588671799253919E+09,
2460756.500000000, A.D. 2025-Mar-22 00:00:00.0000, -2.887155146523423E+08, -5.415275703550854E+08, -3.592523879342317E+09,
2460763.500000000, A.D. 2025-Mar-29 00:00:00.0000, -2.920635677501867E+08, -5.421147990312529E+08, -3.596372353211217E+09,
2460770.500000000, A.D. 2025-Apr-05 00:00:00.0000, -2.954113226469659E+08, -5.427015594964973E+08, -3.600217229141102E+09,
2460777.500000000, A.D. 2025-Apr-12 00:00:00.0000, -2.987587775812153E+08, -5.432878497964216E+08, -3.604058515391660E+09,
2460784.500000000, A.D. 2025-Apr-19 00:00:00.0000, -3.021059312221682E+08, -5.438736684243517E+08, -3.607896220199483E+09,
2460791.500000000, A.D. 2025-Apr-26 00:00:00.0000, -3.054527826329858E+08, -5.444590142708315E+08, -3.611730351770243E+09,
2460798.500000000, A.D. 2025-May-03 00:00:00.0000, -3.087993312672266E+08, -5.450438866494097E+08, -3.615560918274434E+09,
2460805.500000000, A.D. 2025-May-10 00:00:00.0000, -3.121455769699653E+08, -5.456282853896919E+08, -3.619387927848782E+09,
2460812.500000000, A.D. 2025-May-17 00:00:00.0000, -3.154915199468293E+08, -5.462122110383705E+08, -3.623211388610168E+09,
2460819.500000000, A.D. 2025-May-24 00:00:00.0000, -3.188371605270346E+08, -5.467956652224114E+08, -3.627031308702562E+09,
2460826.500000000, A.D. 2025-May-31 00:00:00.0000, -3.221824983026445E+08, -5.473786508631792E+08, -3.630847696389925E+09,
2460833.500000000, A.D. 2025-Jun-07 00:00:00.0000, -3.255275310449910E+08, -5.479611710364716E+08, -3.634660560059868E+09,
2460840.500000000, A.D. 2025-Jun-14 00:00:00.0000, -3.288722557628158E+08, -5.485432271451230E+08, -3.638469907975688E+09,
2460847.500000000, A.D. 2025-Jun-21 00:00:00.0000, -3.322166706853605E+08, -5.491248196753547E+08, -3.642275748155686E+09,
2460854.500000000, A.D. 2025-Jun-28 00:00:00.0000, -3.355607750422121E+08, -5.497059497720138E+08, -3.646078088522465E+09,
2460861.500000000, A.D. 2025-Jul-05 00:00:00.0000, -3.389045681566242E+08, -5.502866194760784E+08, -3.649876937006789E+09,
2460868.500000000, A.D. 2025-Jul-12 00:00:00.0000, -3.422480490433125E+08, -5.508668314296061E+08, -3.653672301562550E+09,
2460875.500000000, A.D. 2025-Jul-19 00:00:00.0000, -3.455912163211570E+08, -5.514465886230543E+08, -3.657464190157135E+09,
2460882.500000000, A.D. 2025-Jul-26 00:00:00.0000, -3.489340682308776E+08, -5.520258942413942E+08, -3.661252610760991E+09,
2460889.500000000, A.D. 2025-Aug-02 00:00:00.0000, -3.522766026922979E+08, -5.526047515872015E+08, -3.665037571340519E+09,
2460896.500000000, A.D. 2025-Aug-09 00:00:00.0000, -3.556188173777795E+08, -5.531831640951335E+08, -3.668819079857485E+09,
2460903.500000000, A.D. 2025-Aug-16 00:00:00.0000, -3.589607097248825E+08, -5.537611355007485E+08, -3.672597144286987E+09,
2460910.500000000, A.D. 2025-Aug-23 00:00:00.0000, -3.623022765956281E+08, -5.543386701469064E+08, -3.676371772679305E+09,
2460917.500000000, A.D. 2025-Aug-30 00:00:00.0000, -3.656435132534242E+08, -5.549157727134709E+08, -3.680142973237162E+09,
2460924.500000000, A.D. 2025-Sep-06 00:00:00.0000, -3.689844130757855E+08, -5.554924463698521E+08, -3.683910754196371E+09,
2460931.500000000, A.D. 2025-Sep-13 00:00:00.0000, -3.723249696735992E+08, -5.560686918331051E+08, -3.687675123559264E+09,
2460938.500000000, A.D. 2025-Sep-20 00:00:00.0000, -3.756651781437068E+08, -5.566445089758610E+08, -3.691436089115264E+09,
2460945.500000000, A.D. 2025-Sep-27 00:00:00.0000, -3.790050343962533E+08, -5.572198978723539E+08, -3.695193658591172E+09,
2460952.500000000, A.D. 2025-Oct-04 00:00:00.0000, -3.823445345734967E+08, -5.577948587431455E+08, -3.698947839701993E+09,
2460959.500000000, A.D. 2025-Oct-11 00:00:00.0000, -3.856836749337313E+08, -5.583693917413598E+08, -3.702698640144948E+09,
2460966.500000000, A.D. 2025-Oct-18 00:00:00.0000, -3.890224519166558E+08, -5.589434968545817E+08, -3.706446067585093E+09,
2460973.500000000, A.D. 2025-Oct-25 00:00:00.0000, -3.923608622506626E+08, -5.595171739110832E+08, -3.710190129644492E+09,
2460980.500000000, A.D. 2025-Nov-01 00:00:00.0000, -3.956989030626370E+08, -5.600904226744894E+08, -3.713930833897356E+09,
2460987.500000000, A.D. 2025-Nov-08 00:00:00.0000, -3.990365719557607E+08, -5.606632430578398E+08, -3.717668187877088E+09,
2460994.500000000, A.D. 2025-Nov-15 00:00:00.0000, -4.023738669075049E+08, -5.612356355151393E+08, -3.721402199113744E+09,
2461001.500000000, A.D. 2025-Nov-22 00:00:00.0000, -4.057107855851880E+08, -5.618076013898312E+08, -3.725132875221079E+09,
2461008.500000000, A.D. 2025-Nov-29 00:00:00.0000, -4.090473242323518E+08, -5.623791420847676E+08, -3.728860223926598E+09,
2461015.500000000, A.D. 2025-Dec-06 00:00:00.0000, -4.123834784034416E+08, -5.629502571892886E+08, -3.732584252847027E+09,
2461022.500000000, A.D. 2025-Dec-13 00:00:00.0000, -4.157192451131716E+08, -5.635209449333816E+08, -3.736304969324575E+09,
2461029.500000000, A.D. 2025-Dec-20 00:00:00.0000, -4.190546229074175E+08, -5.640912039454172E+08, -3.740022380560898E+09,
2461036.500000000, A.D. 2025-Dec-27 00:00:00.0000, -4.223896109294586E+08, -5.646610337217201E+08, -3.743736493738555E+09,
2461043.500000000, A.D. 2026-Jan-03 00:00:00.0000, -4.257242084407921E+08, -5.652304344229894E+08, -3.747447316046471E+09,
2461050.500000000, A.D. 2026-Jan-10 00:00:00.0000, -4.290584146867574E+08, -5.657994066757815E+08, -3.751154854674891E+09,
2461057.500000000, A.D. 2026-Jan-17 00:00:00.0000, -4.323922288744090E+08, -5.663679514698143E+08, -3.754859116808598E+09,
2461064.500000000, A.D. 2026-Jan-24 00:00:00.0000, -4.357256501846942E+08, -5.669360701275361E+08, -3.758560109623586E+09,
2461071.500000000, A.D. 2026-Jan-31 00:00:00.0000, -4.390586777954844E+08, -5.675037643524394E+08, -3.762257840289840E+09,
2461078.500000000, A.D. 2026-Feb-07 00:00:00.0000, -4.423913108539383E+08, -5.680710364125412E+08, -3.765952315990443E+09,
2461085.500000000, A.D. 2026-Feb-14 00:00:00.0000, -4.457235481451463E+08, -5.686378894734392E+08, -3.769643543981359E+09,
2461092.500000000, A.D. 2026-Feb-21 00:00:00.0000, -4.490553870694881E+08, -5.692043275031242E+08, -3.773331531680180E+09,
2461099.500000000, A.D. 2026-Feb-28 00:00:00.0000, -4.523868230135438E+08, -5.697703535944518E+08, -3.777016286589978E+09,
2461106.500000000, A.D. 2026-Mar-07 00:00:00.0000, -4.557178511731120E+08, -5.703359686549008E+08, -3.780697816028726E+09,
2461113.500000000, A.D. 2026-Mar-14 00:00:00.0000, -4.590484680526217E+08, -5.709011727961969E+08, -3.784376127109435E+09,
2461120.500000000, A.D. 2026-Mar-21 00:00:00.0000, -4.623786708580559E+08, -5.714659665257447E+08, -3.788051226897598E+09,
2461127.500000000, A.D. 2026-Mar-28 00:00:00.0000, -4.657084567927823E+08, -5.720303507111838E+08, -3.791723122477437E+09,
2461134.500000000, A.D. 2026-Apr-04 00:00:00.0000, -4.690378228600189E+08, -5.725943262837116E+08, -3.795391820950357E+09,
2461141.500000000, A.D. 2026-Apr-11 00:00:00.0000, -4.723667658979976E+08, -5.731578940401384E+08, -3.799057329419960E+09,
2461148.500000000, A.D. 2026-Apr-18 00:00:00.0000, -4.756952826884333E+08, -5.737210545503879E+08, -3.802719654978569E+09,
2461155.500000000, A.D. 2026-Apr-25 00:00:00.0000, -4.790233700922292E+08, -5.742838081557411E+08, -3.806378804698061E+09,
2461162.500000000, A.D. 2026-May-02 00:00:00.0000, -4.823510251813945E+08, -5.748461550874655E+08, -3.810034785630063E+09,
2461169.500000000, A.D. 2026-May-09 00:00:00.0000, -4.856782452421869E+08, -5.754080957720308E+08, -3.813687604832175E+09,
2461176.500000000, A.D. 2026-May-16 00:00:00.0000, -4.890050272711645E+08, -5.759696311845633E+08, -3.817337269443459E+09,
2461183.500000000, A.D. 2026-May-23 00:00:00.0000, -4.923313669120140E+08, -5.765307622281215E+08, -3.820983786730320E+09,
2461190.500000000, A.D. 2026-May-30 00:00:00.0000, -4.956572589114144E+08, -5.770914878192035E+08, -3.824627163886030E+09,
2461197.500000000, A.D. 2026-Jun-06 00:00:00.0000, -4.989826994111220E+08, -5.776518049530240E+08, -3.828267407822390E+09,
2461204.500000000, A.D. 2026-Jun-13 00:00:00.0000, -5.023076864102733E+08, -5.782117105495985E+08, -3.831904525273615E+09,
2461211.500000000, A.D. 2026-Jun-20 00:00:00.0000, -5.056322188989138E+08, -5.787712021544874E+08, -3.835538522927608E+09,
2461218.500000000, A.D. 2026-Jun-27 00:00:00.0000, -5.089562963611163E+08, -5.793302778340350E+08, -3.839169407456816E+09,
2461225.500000000, A.D. 2026-Jul-04 00:00:00.0000, -5.122799186478004E+08, -5.798889360399486E+08, -3.842797185512309E+09,
2461232.500000000, A.D. 2026-Jul-11 00:00:00.0000, -5.156030859653390E+08, -5.804471755750930E+08, -3.846421863715400E+09,
2461239.500000000, A.D. 2026-Jul-18 00:00:00.0000, -5.189257988872449E+08, -5.810049956346886E+08, -3.850043448653472E+09,
2461246.500000000, A.D. 2026-Jul-25 00:00:00.0000, -5.222480583645166E+08, -5.815623959201417E+08, -3.853661946882285E+09,
2461253.500000000, A.D. 2026-Aug-01 00:00:00.0000, -5.255698656865681E+08, -5.821193768735422E+08, -3.857277364943264E+09,
2461260.500000000, A.D. 2026-Aug-08 00:00:00.0000, -5.288912221779104E+08, -5.826759400686407E+08, -3.860889709418595E+09,
2461267.500000000, A.D. 2026-Aug-15 00:00:00.0000, -5.322121282156122E+08, -5.832320883077822E+08, -3.864498987025440E+09,
2461274.500000000, A.D. 2026-Aug-22 00:00:00.0000, -5.355325823286974E+08, -5.837878242033663E+08, -3.868105204579765E+09,
$$EOE